{
  "links" : {
    "next" : "https://api.nasa.gov/neo/rest/v1/feed?start_date=2011-01-23&end_date=2011-01-23&detailed=true&api_key=t0TVs3DtDT2H8Oy2Zy8m2eVrNsAVKAexjcZXUckd",
    "prev" : "https://api.nasa.gov/neo/rest/v1/feed?start_date=2011-01-21&end_date=2011-01-21&detailed=true&api_key=t0TVs3DtDT2H8Oy2Zy8m2eVrNsAVKAexjcZXUckd",
    "self" : "https://api.nasa.gov/neo/rest/v1/feed?start_date=2011-01-22&end_date=2011-01-22&detailed=true&api_key=t0TVs3DtDT2H8Oy2Zy8m2eVrNsAVKAexjcZXUckd"
  },
  "element_count" : 9,
  "near_earth_objects" : {
    "2011-01-22" : [ {
      "links" : {
        "self" : "https://api.nasa.gov/neo/rest/v1/neo/3465683?api_key=t0TVs3DtDT2H8Oy2Zy8m2eVrNsAVKAexjcZXUckd"
      },
      "neo_reference_id" : "3465683",
      "name" : "(2009 PY)",
      "nasa_jpl_url" : "http://ssd.jpl.nasa.gov/sbdb.cgi?sstr=3465683",
      "absolute_magnitude_h" : 21.1,
      "estimated_diameter" : {
        "kilometers" : {
          "estimated_diameter_min" : 0.160160338,
          "estimated_diameter_max" : 0.358129403
        },
        "meters" : {
          "estimated_diameter_min" : 160.1603379786,
          "estimated_diameter_max" : 358.1294030194
        },
        "miles" : {
          "estimated_diameter_min" : 0.0995189894,
          "estimated_diameter_max" : 0.2225312253
        },
        "feet" : {
          "estimated_diameter_min" : 525.4604432536,
          "estimated_diameter_max" : 1174.9652706022
        }
      },
      "is_potentially_hazardous_asteroid" : false,
      "close_approach_data" : [ {
        "close_approach_date" : "2011-01-22",
        "epoch_date_close_approach" : 1295683200000,
        "relative_velocity" : {
          "kilometers_per_second" : "19.1002603461",
          "kilometers_per_hour" : "68760.9372461152",
          "miles_per_hour" : "42725.3723682875"
        },
        "miss_distance" : {
          "astronomical" : "0.3210227753",
          "lunar" : "124.8778610229",
          "kilometers" : "48024324",
          "miles" : "29840932"
        },
        "orbiting_body" : "Earth"
      } ],
      "orbital_data" : {
        "orbit_id" : "14",
        "orbit_determination_date" : "2017-04-06 09:00:18",
        "orbit_uncertainty" : "4",
        "minimum_orbit_intersection" : ".179884",
        "jupiter_tisserand_invariant" : "6.237",
        "epoch_osculation" : "2458000.5",
        "eccentricity" : ".294112487765587",
        "semi_major_axis" : ".9446071816678009",
        "inclination" : "26.5620020718469",
        "ascending_node_longitude" : "325.6734166978306",
        "orbital_period" : "335.332225737692",
        "perihelion_distance" : ".6667864135062442",
        "perihelion_argument" : "195.9871964486533",
        "aphelion_distance" : "1.222427949829358",
        "perihelion_time" : "2457950.085437950865",
        "mean_anomaly" : "54.12316784574595",
        "mean_motion" : "1.073562194054096",
        "equinox" : "J2000"
      }
    }, {
      "links" : {
        "self" : "https://api.nasa.gov/neo/rest/v1/neo/3553279?api_key=t0TVs3DtDT2H8Oy2Zy8m2eVrNsAVKAexjcZXUckd"
      },
      "neo_reference_id" : "3553279",
      "name" : "(2010 XB24)",
      "nasa_jpl_url" : "http://ssd.jpl.nasa.gov/sbdb.cgi?sstr=3553279",
      "absolute_magnitude_h" : 21.8,
      "estimated_diameter" : {
        "kilometers" : {
          "estimated_diameter_min" : 0.1160259082,
          "estimated_diameter_max" : 0.2594418179
        },
        "meters" : {
          "estimated_diameter_min" : 116.0259082094,
          "estimated_diameter_max" : 259.4418179074
        },
        "miles" : {
          "estimated_diameter_min" : 0.0720951346,
          "estimated_diameter_max" : 0.1612096218
        },
        "feet" : {
          "estimated_diameter_min" : 380.6624406898,
          "estimated_diameter_max" : 851.1870938635
        }
      },
      "is_potentially_hazardous_asteroid" : true,
      "close_approach_data" : [ {
        "close_approach_date" : "2011-01-22",
        "epoch_date_close_approach" : 1295683200000,
        "relative_velocity" : {
          "kilometers_per_second" : "8.5694625908",
          "kilometers_per_hour" : "30850.0653268212",
          "miles_per_hour" : "19169.030869324"
        },
        "miss_distance" : {
          "astronomical" : "0.1641726849",
          "lunar" : "63.8631706238",
          "kilometers" : "24559884",
          "miles" : "15260804"
        },
        "orbiting_body" : "Earth"
      } ],
      "orbital_data" : {
        "orbit_id" : "19",
        "orbit_determination_date" : "2017-04-06 08:55:18",
        "orbit_uncertainty" : "4",
        "minimum_orbit_intersection" : ".0214322",
        "jupiter_tisserand_invariant" : "4.936",
        "epoch_osculation" : "2458000.5",
        "eccentricity" : ".4390606453326319",
        "semi_major_axis" : "1.28581546705545",
        "inclination" : "5.530381518658426",
        "ascending_node_longitude" : "263.408976083536",
        "orbital_period" : "532.5573651248792",
        "perihelion_distance" : ".7212644983114044",
        "perihelion_argument" : "285.7720982525778",
        "aphelion_distance" : "1.850366435799495",
        "perihelion_time" : "2457762.070385634640",
        "mean_anomaly" : "161.1744889705962",
        "mean_motion" : ".6759835157205717",
        "equinox" : "J2000"
      }
    }, {
      "links" : {
        "self" : "https://api.nasa.gov/neo/rest/v1/neo/3553703?api_key=t0TVs3DtDT2H8Oy2Zy8m2eVrNsAVKAexjcZXUckd"
      },
      "neo_reference_id" : "3553703",
      "name" : "(2010 XZ67)",
      "nasa_jpl_url" : "http://ssd.jpl.nasa.gov/sbdb.cgi?sstr=3553703",
      "absolute_magnitude_h" : 19.7,
      "estimated_diameter" : {
        "kilometers" : {
          "estimated_diameter_min" : 0.3051792326,
          "estimated_diameter_max" : 0.6824015094
        },
        "meters" : {
          "estimated_diameter_min" : 305.1792325939,
          "estimated_diameter_max" : 682.4015094011
        },
        "miles" : {
          "estimated_diameter_min" : 0.1896295249,
          "estimated_diameter_max" : 0.4240245083
        },
        "feet" : {
          "estimated_diameter_min" : 1001.2442334633,
          "estimated_diameter_max" : 2238.8501681036
        }
      },
      "is_potentially_hazardous_asteroid" : false,
      "close_approach_data" : [ {
        "close_approach_date" : "2011-01-22",
        "epoch_date_close_approach" : 1295683200000,
        "relative_velocity" : {
          "kilometers_per_second" : "14.4392764289",
          "kilometers_per_hour" : "51981.3951440054",
          "miles_per_hour" : "32299.2174437849"
        },
        "miss_distance" : {
          "astronomical" : "0.2906378612",
          "lunar" : "113.0581207275",
          "kilometers" : "43478804",
          "miles" : "27016476"
        },
        "orbiting_body" : "Earth"
      } ],
      "orbital_data" : {
        "orbit_id" : "95",
        "orbit_determination_date" : "2016-11-08 06:19:19",
        "orbit_uncertainty" : "0",
        "minimum_orbit_intersection" : ".0622295",
        "jupiter_tisserand_invariant" : "3.596",
        "epoch_osculation" : "2457600.5",
        "eccentricity" : ".4940709730091893",
        "semi_major_axis" : "2.061167921359341",
        "inclination" : "11.838636259736",
        "ascending_node_longitude" : "280.2952914778854",
        "orbital_period" : "1080.857620914452",
        "perihelion_distance" : "1.042804680918003",
        "perihelion_argument" : "169.0847268066647",
        "aphelion_distance" : "3.079531161800679",
        "perihelion_time" : "2457730.045250104432",
        "mean_anomaly" : "316.852513101458",
        "mean_motion" : ".3330688455482457",
        "equinox" : "J2000"
      }
    } ]
  }
}